0 BREEZE-M DEB
1 38899U 12044AG  13282.51265589  .00602241  43964-4  72670-2 0  5473
2 38899 050.0287 102.6608 1172917 298.4541 050.3063 13.33921188162921
0 BREEZE-M DEB
1 38899U 12044AG  13282.66249467  .00560360  38761-4  67687-2 0  5483
2 38899 050.0287 102.1041 1172164 298.9287 049.8965 13.34073346162944
0 BREEZE-M DEB
1 38899U 12044AG  13283.48629408  .00608339  44888-4  73277-2 0  5502
2 38899 050.0285 099.0423 1167974 301.4550 047.7266 13.35026973163055
0 BREEZE-M DEB
1 38899U 12044AG  13283.78570738  .00633549  48302-4  76272-2 0  5511
2 38899 050.0279 097.9283 1166635 302.3854 046.9296 13.35326180163090
0 BREEZE-M DEB
1 38899U 12044AG  13283.78571407  .00609785  00000-0  73792-2 0  5490
2 38899 050.0362 097.9197 1165683 302.3818 046.9466 13.35388322163094
0 BREEZE-M DEB
1 38899U 12044AG  13283.93538831  .00591511  42769-4  71215-2 0  5522
2 38899 050.0275 097.3708 1165935 302.8445 046.5375 13.35480964163113
0 BREEZE-M DEB
1 38899U 12044AG  13284.53394085  .00626244  47408-4  75190-2 0  5534
2 38899 050.0263 095.1413 1163280 304.6845 044.9698 13.36099494163197
0 BREEZE-M DEB
1 38899U 12044AG  13285.50597642  .00592913  43147-4  70967-2 0  5556
2 38899 050.0257 091.5158 1158696 307.6751 042.4408 13.37149509163321
0 BREEZE-M DEB
1 38899U 12044AG  13286.47723647  .00601258  44356-4  71730-2 0  5565
2 38899 050.0248 087.8865 1153990 310.6771 039.9225 13.38226282163459
0 BREEZE-M DEB
1 38899U 12044AG  13287.74613864  .00752731  67004-4  89154-2 0  5573
2 38899 050.0237 083.1364 1147226 314.5943 036.6677 13.39804366163629
0 BREEZE-M DEB
1 38899U 12044AG  13287.89531792  .00854965  85239-4  10108-1 0  5583
2 38899 050.0234 082.5776 1146107 315.0649 036.2808 13.40072511163647
0 BREEZE-M DEB
1 38899U 12044AG  13288.41721136  .00840379  82680-4  99057-2 0  5598
2 38899 050.0229 080.6188 1142190 316.6679 034.9660 13.40974004163712
0 BREEZE-M DEB
1 38899U 12044AG  13288.64077455  .00772995  70674-4  90931-2 0  5603
2 38899 050.0231 079.7794 1141021 317.3682 034.3890 13.41261460163749
0 BREEZE-M DEB
1 38899U 12044AG  13288.78978574  .00791203  73873-4  93013-2 0  5612
2 38899 050.0229 079.2194 1139997 317.8294 034.0113 13.41494346163766
0 BREEZE-M DEB
1 38899U 12044AG  13289.68335351  .00851521  85173-4  99603-2 0  5620
2 38899 050.0221 075.8575 1134424 320.6096 031.7362 13.42785858163880
0 BREEZE-M DEB
1 38899U 12044AG  13290.50170133  .00868225  88665-4  10111-1 0  5633
2 38899 050.0215 072.7722 1129130 323.1542 029.6643 13.44008982163993
0 BREEZE-M DEB
1 38899U 12044AG  13290.50171223  .00633346  00000-0  76909-2 0  5640
2 38899 050.0218 072.7732 1125692 323.1613 029.6960 13.44077149163998
0 BREEZE-M DEB
1 38899U 12044AG  13291.46781933  .00839293  83457-4  97189-2 0  5644
2 38899 050.0206 069.1224 1122447 326.1739 027.2174 13.45556000164124
0 BREEZE-M DEB
1 38899U 12044AG  13291.83911712  .00781384  73045-4  90233-2 0  5658
2 38899 050.0203 067.7171 1119891 327.3298 026.2831 13.46158210164174
0 BREEZE-M DEB
1 38899U 12044AG  13292.43285720  .00844209  84716-4  97318-2 0  5663
2 38899 050.0198 065.4679 1115977 329.1855 024.7848 13.47038989164256
0 BREEZE-M DEB
1 38899U 12044AG  13293.47093269  .00883111  92702-4  10116-1 0  5673
2 38899 050.0184 061.5271 1109061 332.4400 022.1642 13.48645943164390
0 BREEZE-M DEB
1 38899U 12044AG  13294.50772960  .00946296  10635-3  10775-1 0  5680
2 38899 050.0172 057.5809 1101764 335.7085 019.5408 13.50331456164536
0 BREEZE-M DEB
1 38899U 12044AG  13294.72973240  .00983714  11477-3  11167-1 0  5696
2 38899 050.0169 056.7353 1100116 336.4078 018.9806 13.50736824164563
0 BREEZE-M DEB
1 38899U 12044AG  13295.17354602  .00928082  10272-3  10533-1 0  5708
2 38899 050.0165 055.0418 1097094 337.8019 017.8632 13.51403370164623
0 BREEZE-M DEB
1 38899U 12044AG  13295.46930035  .00997494  11830-3  11286-1 0  5711
2 38899 050.0160 053.9131 1094716 338.7346 017.1173 13.51968663164666
0 BREEZE-M DEB
1 38899U 12044AG  13295.83882527  .00986717  11601-3  11129-1 0  5723
2 38899 050.0155 052.5005 1092083 339.8999 016.1845 13.52592271164716
